ONEWEB-0612             
1 54675U 22166AK  24103.39869196  .00000125  00000+0  27160-3 0  9991
2 54675  87.9302  42.3513 0002214  74.6264 285.5114 13.21824377 66303
ONEWEB-0615             
1 54676U 22166AL  24103.37976575  .00000066  00000+0  12944-3 0  9998
2 54676  87.9301  42.3794 0001909  70.9186 289.2154 13.21827134 66316
ONEWEB-0655             
1 54677U 22166AM  24103.35293729 -.00000002  00000+0 -37123-4 0  9999
2 54677  87.9303  42.3864 0001767  62.3436 297.7877 13.21828830 66301
ONEWEB-0659             
1 54678U 22166AN  24103.37030266  .00000016  00000+0  84540-5 0  9996
2 54678  87.9301  42.3905 0001920  87.4817 272.6537 13.21824731 66398
ONEWEB-0685             
1 54679U 22166AP  24103.37189490  .00000017  00000+0  10770-4 0  9995
2 54679  87.9304  42.3786 0002000  70.8764 289.2586 13.21828075 66287
ONEWEB-0712             
1 54680U 22166AQ  24103.32672831  .00000096  00000+0  21777-3 0  9993
2 54680  87.9147  27.1869 0001458  85.1048 275.0250 13.16593844 67332
ONEWEB-0714             
1 54681U 22166AR  24103.37818344  .00000045  00000+0  77122-4 0  9990
2 54681  87.9303  42.3624 0001986  70.5586 289.5763 13.21825206 66408
ONEWEB-0532             
1 55140U 23004A   24103.60136265  .00000197  00000+0  47518-3 0  9997
2 55140  87.9220 164.1735 0002861  98.3068 261.8388 13.17646910 62814
